SPAWAR-CAL-R            
1 43776U 18099U   26067.65115975  .00003570  00000+0  25336-3 0  9990
2 43776  97.4524 111.5817 0019701 348.9052  11.1737 15.05212097396878
STARLINK-4517           
1 53390U 22097C   26068.45478937 -.00000431  00000+0 -89938-5 0  9990
2 53390  53.2169 125.1760 0001338  95.9433 264.1712 15.08837888198780
