[{"OBJECT_NAME":"SPAWAR-CAL-R","OBJECT_ID":"2018-099U","EPOCH":"2026-03-08T15:37:40.202400","MEAN_MOTION":15.05212097,"ECCENTRICITY":0.00197014,"INCLINATION":97.4524,"RA_OF_ASC_NODE":111.5817,"ARG_OF_PERICENTER":348.9052,"MEAN_ANOMALY":11.1737,"EPHEMERIS_TYPE":0,"CLASSIFICATION_TYPE":"U","NORAD_CAT_ID":43776,"ELEMENT_SET_NO":999,"REV_AT_EPOCH":39687,"BSTAR":0.00025335573,"MEAN_MOTION_DOT":3.57e-5,"MEAN_MOTION_DDOT":0},{"OBJECT_NAME":"STARLINK-4517","OBJECT_ID":"2022-097C","EPOCH":"2026-03-09T10:54:53.801568","MEAN_MOTION":15.08837888,"ECCENTRICITY":0.0001338,"INCLINATION":53.2169,"RA_OF_ASC_NODE":125.176,"ARG_OF_PERICENTER":95.9433,"MEAN_ANOMALY":264.1712,"EPHEMERIS_TYPE":0,"CLASSIFICATION_TYPE":"U","NORAD_CAT_ID":53390,"ELEMENT_SET_NO":999,"REV_AT_EPOCH":19878,"BSTAR":-8.993758e-6,"MEAN_MOTION_DOT":-4.31e-6,"MEAN_MOTION_DDOT":0}]
